STARLINK-30707
1 57949U 23148Q   25352.52329142  .00000332  00000+0  23346-4 0  9996
2 57949  53.1608  41.4134 0001048  97.4060 262.7060 15.30194163125997